IRIDIUM 126             
1 42809U 17039G   25209.84132942  .00000009  00000+0 -38404-5 0  9997
2 42809  86.4000 128.8323 0002071  77.8292 282.3135 14.34217240423613
IRIDIUM 124             
1 42810U 17039H   25210.10934455  .00000306  00000+0  85104-4 0  9996
2 42810  86.4448  65.4324 0002074  92.2618 267.8820 14.43284959428518
IRIDIUM 128             
1 42811U 17039J   25210.11114235 -.00000036  00000+0 -19788-4 0  9991
2 42811  86.4023 160.1964 0001954  93.5680 266.5739 14.34217364423673
IRIDIUM 121             
1 42812U 17039K   25209.86035723  .00000259  00000+0  85566-4 0  9998
2 42812  86.3999 128.8500 0002230  87.9016 272.2435 14.34215014423600
IRIDIUM 133             
1 42955U 17061A   25210.14285462 -.00000012  00000+0 -11218-4 0  9993
2 42955  86.4026 160.2928 0002101  84.8919 275.2517 14.34216359408474
IRIDIUM 100             
1 42956U 17061B   25210.13651255  .00000041  00000+0  76669-5 0  9992
2 42956  86.4020 160.2217 0002038  84.1606 275.9822 14.34217802408497
IRIDIUM 122             
1 42957U 17061C   25209.61642039  .00000005  00000+0 -54440-5 0  9998
2 42957  86.4023 160.4380 0002086  83.5048 276.6386 14.34217568408403
IRIDIUM 129             
1 42958U 17061D   25210.13017747  .00000259  00000+0  85392-4 0  9999
2 42958  86.4022 160.2870 0002659  79.8227 280.3268 14.34219387408499
